GLOBALSTAR M063         
1 26081U 00008A   25269.21475359 -.00000126  00000+0 -62872-3 0  9993
2 26081  51.9943 205.5002 0004412 143.6256   4.8019 11.86175220169564
GLOBALSTAR M062         
1 26082U 00008B   25269.18567584 -.00000117  00000+0 -13306-3 0  9990
2 26082  51.9838 158.7752 0007141 333.5868 192.3427 12.43471864509189
GLOBALSTAR M060         
1 26083U 00008C   25269.05183755  .00000044  00000+0  13448-2 0  9994
2 26083  52.0002 133.4464 0003289 346.0831 173.0200 12.17666009164655
GLOBALSTAR M064         
1 26084U 00008D   25269.14693253 -.00000040  00000+0  60938-3 0  9998
2 26084  52.0039 303.3205 0001334 246.7466 113.3226 11.88537002179104
GLOBALSTAR M065         
1 31571U 07020A   25269.27450024 -.00000108  00000+0 -25783-4 0  9993
2 31571  51.9890 278.5892 0010110 170.7164 202.5572 12.62009988846175
GLOBALSTAR M069         
1 31573U 07020C   25269.05903433 -.00000087  00000+0  54365-4 0  9991
2 31573  52.0022 279.7097 0001721 330.4328  63.5038 12.23460833846473
GLOBALSTAR M072         
1 31574U 07020D   25269.19332128 -.00000094  00000+0 -13788-3 0  9996
2 31574  51.9922  83.0651 0001628 129.8707  41.3393 11.91652031843506
GLOBALSTAR M071         
1 31576U 07020F   25269.29599403 -.00000125  00000+0 -33619-3 0  9990
2 31576  52.0070 307.5094 0000600 319.3241 120.2700 12.18258544507267
